#aV2009  1 31  0  0   .00000000      96 DD+AD WGS84 FIT  NGA
## 1516 518400.00000000   900.00000000 54862  .0000000000000
+   31     2  3  4  5  6  7  8  9 10 11 12 13 14 15 16 17 18
+         19 20 21 22 23 24 25 26 27 28 29 30 31 32  0  0  0
+          0  0  0  0  0  0  0  0  0  0  0  0  0  0  0  0  0
+          0  0  0  0  0  0  0  0  0  0  0  0  0  0  0  0  0
+          0  0  0  0  0  0  0  0  0  0  0  0  0  0  0  0  0
++         0  0  0  0  0  0  0  0  0  0  0  0  0  0  0  0  0
++         0  0  0  0  0  0  0  0  0  0  0  0  0  0  0  0  0
++         0  0  0  0  0  0  0  0  0  0  0  0  0  0  0  0  0
++         0  0  0  0  0  0  0  0  0  0  0  0  0  0  0  0  0
++         0  0  0  0  0  0  0  0  0  0  0  0  0  0  0  0  0
%c cc cc ccc ccc cccc cccc cccc cccc ccccc ccccc ccccc ccccc
%c cc cc ccc ccc cccc cccc cccc cccc ccccc ccccc ccccc ccccc
%f  0.0000000  0.000000000  0.00000000000  0.000000000000000
%f  0.0000000  0.000000000  0.00000000000  0.000000000000000
%i    0    0    0    0      0      0      0      0         0
%i    0    0    0    0      0      0      0      0         0
/*      NGA, ST. LOUIS,MO.                                  
/*   EPHEMERIS COMPUTED FROM  3 DAYS OF DATA                
/* CCCCCCCCCCCCCCCCCCCCCCCCCCCCCCCCCCCCCCCCCCCCCCCCCCCCCCCCC
/* CCCCCCCCCCCCCCCCCCCCCCCCCCCCCCCCCCCCCCCCCCCCCCCCCCCCCCCCC
*  2009  1 31 16  0   .00000000                                                 
P  2  -6072.556118 -18944.603696  17656.466354    159.161619                    
V  2  20085.096668  10467.570293  17623.755196      -.015593                    
P  3    671.345171  17654.027651 -20041.054679    346.634014                    
V  3 -21633.075853  12656.206477  10939.214808       .052669                    
P  4   9010.027831 -12731.487583  21373.306140   -319.650955                    
V  4  23118.427171  14923.211598   -483.734142      -.138450                    
P  5 -14459.524132 -10718.502715  19274.439269   -619.482375                    
V  5    221.214369 -25166.981459 -13499.729050      -.471290                    
P  6  -5283.908935  18496.419757 -18116.987142     73.762756                    
V  6 -21345.223719   9988.136405  16283.402672      -.134513                    
P  7  22959.850434   4205.329306 -12791.036410     23.015612                    
V  7  12485.265795  10478.584652  25781.933612      -.002252                    
P  8  15469.548729  -5877.968103 -20946.533156   -188.625183                    
V  8  21014.390090  15778.503965  10640.462324      -.015705                    
P  9 -21419.533721 -15524.597148  -3583.254669     37.956648                    
V  9   4341.591007      2.471360 -31566.102904       .020144                    
P 10  -2488.958403 -25569.978403  -6146.674499    -10.375425                    
V 10   3526.270311  -7451.475917  30656.332569      -.006437                    
P 11  23877.467765  11716.781760  -3029.404008      8.899147                    
V 11  -5045.495984   3054.159446 -29561.432937      -.010690                    
P 12 -12243.599291 -14427.554789  18756.733684   -320.524007                    
V 12   2489.354523 -23512.004440 -16423.307652       .035919                    
P 13  24327.046712  -4032.981887   9737.677182    286.957445                    
V 13 -10748.641996   6569.143369  29230.622517       .013273                    
P 14 -19367.636360  15744.295457   9039.362563   -160.672616                    
V 14 -10993.543853   3201.629286 -29630.389552       .052862                    
P 15  -9983.236824 -11862.992864 -21536.339425   -250.181837                    
V 15  24033.792492 -13226.118005  -3801.934483      -.054096                    
P 16  -2176.066760  26343.398331    570.789422     78.048229                    
V 16  -2742.352986   -842.288270  32044.019613      -.027558                    
P 17  20696.105220 -15247.833132   6326.693960     45.732308                    
V 17   8453.468215   -995.200905 -30476.926109       .011173                    
P 18 -15260.117502   7142.530029 -20239.840291    -87.785589                    
V 18    785.259692 -26340.437932 -10146.131230       .036388                    
P 19  11855.841170  11019.979644 -21034.706896     33.111954                    
V 19 -24403.164597  11146.917998  -7667.570391      -.005288                    
P 20  13851.444061  11368.187484  19495.489908     92.106413                    
V 20  -2019.100822  25025.740619 -13026.692242      -.010819                    
P 21 -21631.273377   -649.690057 -15564.933486     31.271338                    
V 21 -15411.540147 -12944.739581  21022.447795      -.018051                    
P 22 -11907.584118  18940.284977 -14114.324459    205.788905                    
V 22  -1109.707200 -18418.054495 -23576.653582      -.004995                    
P 23  19955.564026   3114.503404  17339.935479    386.173643                    
V 23 -18942.949457  11237.444217  19465.327275       .007181                    
P 24 -22823.978473 -12528.880009  -4319.913674    161.878558                    
V 24  -2710.265426  -6016.998253  31066.307504       .029827                    
P 25  24427.957290   8292.171333  -5525.296529    211.664996                    
V 25   5429.545984   5857.952008  30990.342067       .255385                    
P 26  -3314.394807 -14549.184444 -22438.192170     40.922577                    
V 26  24962.753801 -10869.118297   3955.829520       .031666                    
P 27   7248.553334 -12734.408907 -21499.542829     20.880911                    
V 27  25188.738432  14093.418436     59.232694       .032070                    
P 28  12201.497478 -17006.748327 -15732.727744    -23.716373                    
V 28    568.523348  20973.515649 -21984.169952       .000032                    
P 29 -24013.994028   3171.338424  10959.612681    -13.923058                    
V 29  11306.193958  -8247.304226  27449.779403       .030137                    
P 30 -15249.818834   -612.376752  21379.173571    123.329681                    
V 30    166.845224 -28037.308443   -590.347162       .025277                    
P 31  -5835.921933  14084.273796  21954.789843    -49.823971                    
V 31 -23216.055615 -14446.525275   3250.142548      -.014522                    
P 32   8924.276520  19308.383911  16460.667940    299.325643                    
V 32  -4129.435060  19664.663528 -21133.955598      -.030527                    
EOF
